QIANFAN-33              
1 61566U 24185Q   25241.93284612  .00000405  00000+0  28420-3 0  9990
2 61566  88.9747  90.5092 0005138 304.7849  55.2843 13.96421138 54538
QIANFAN-34              
1 61567U 24185R   25241.89968453  .00000327  00000+0  20523-3 0  9997
2 61567  88.9725  90.2151 0004456 315.0705  45.0114 14.02174023 54664
QIANFAN-35              
1 61568U 24185S   25241.92594041  .00000871  00000+0  34767-3 0  9999
2 61568  88.9750  89.1982 0004444 273.4700  86.5986 14.27691054 55226
QIANFAN-36              
1 61569U 24185T   25241.92579730  .00000095  00000+0  11969-3 0  9995
2 61569  88.9736  91.9787 0006166   5.3091 354.8127 13.55548967 53728
QIANFAN-37              
1 62238U 24232B   25241.89456507  .00000054  00000+0  64519-4 0  9999
2 62238  88.9939  51.9158 0002415  80.3576 279.7848 13.50960893 85012
QIANFAN-38              
1 62239U 24232C   25241.91945262  .00000047  00000+0  53433-4 0  9999
2 62239  88.9946  51.8219 0015992 133.3976 226.8510 13.50964971 85071
QIANFAN-39              
1 62240U 24232D   25241.88800767  .00000193  00000+0  75651-4 0  9995
2 62240  88.9947  49.2995 0018193  65.9283 294.3811 14.25237186 86454
QIANFAN-40              
1 62241U 24232E   25241.95234906  .00000056  00000+0  68534-4 0  9990
2 62241  88.9974  51.3735 0014847 140.2501 219.9741 13.50961549 85440
